{"rsp":{"shipping_addresses":[{"address_id":200163934,"is_default":true,"location":{"address":"111111aaaa","city":"阳泉市","district":"郊区","zip":"123456"},"mobile":"11111111111","phone":"0571-88109898","receiver_name":"aaaaa"},{"address_id":200168081,"is_default":false,"location":{"address":"广动路113号204房","city":"广州","district":"开发区","zip":"123456"},"mobile":"1234444","phone":"1354444","receiver_name":"小马"},{"address_id":200163932,"is_default":false,"location":{"address":"11111aaaaa","city":"晋城市","district":"陵川县","zip":"123456"},"mobile":"123123123","phone":"0571-88109898","receiver_name":"11111"},{"address_id":200163933,"is_default":false,"location":{"address":"11111aaaaa","city":"晋城市","district":"陵川县","zip":"123456"},"mobile":"123123123","phone":"0571-88109898","receiver_name":"11111"},{"address_id":200165467,"is_default":false,"location":{"address":"广动路113号204房","city":"广州","district":"开发区","zip":"123456"},"mobile":"1234444","phone":"1354444","receiver_name":"小马"},{"address_id":200165463,"is_default":false,"location":{"address":"vvvvvvaaa","city":"漯河市","district":"舞阳县","zip":"123456"},"mobile":"1111111111","phone":"0571-88109898","receiver_name":"vvvvvv"},{"address_id":200022152,"is_default":false,"location":{"address":"婉佩测试 topAPi","city":"北京市","district":"东城区","zip":"123456"},"mobile":"12365478963","phone":"0571-88109898","receiver_name":"婉佩"},{"address_id":200168015,"is_default":false,"location":{"address":"广动路113号204房","city":"广州","district":"开发区","zip":"123456"},"mobile":"1234444","phone":"1354444","receiver_name":"小马"}]}}